NORAD_CAT_ID,OBJECT_NAME,OBJECT_TYPE,EPOCH,MEAN_MOTION,ECCENTRICITY,INCLINATION,RA_OF_ASC_NODE,ARG_OF_PERICENTER,MEAN_ANOMALY,BSTAR,MEAN_MOTION_DOT,MEAN_MOTION_DDOT,TLE_LINE0,TLE_LINE1,TLE_LINE2,SEMIMAJOR_AXIS,PERIOD,APOGEE,PERIGEE,DECAYED
52336.0,STARLINK-3823,PAYLOAD,2022-11-30 23:51:28,15.08830912,0.0003291,53.2179,172.3333,46.7794,313.3472,2.4858e-05,1.07e-06,0.0,0 STARLINK-3823,1 52336U 22045F   22334.99407473  .00000107  00000-0  24858-4 0  9998,2 52336  53.2179 172.3333 0003291  46.7794 313.3472 15.08830912 35280,6917.908,95.438,542.05,537.496,0.0
52336.0,STARLINK-3823,PAYLOAD,2022-12-01 06:13:00,15.08833701,0.0003054,53.217,171.1444,45.8958,314.2286,3.2473e-05,2.28e-06,0.0,0 STARLINK-3823,1 52336U 22045F   22335.25903341  .00000228  00000-0  32473-4 0  9999,2 52336  53.2170 171.1444 0003054  45.8958 314.2286 15.08833701 35327,6917.9,95.438,541.877,537.6519999999998,0.0
52336.0,STARLINK-3823,PAYLOAD,2022-12-02 12:25:20,15.08835696,0.000312,53.217,165.4942,47.222,312.9035,0.00012953,1.773e-05,0.0,0 STARLINK-3823,1 52336U 22045F   22336.51759413  .00001773  00000-0  12953-3 0  9994,2 52336  53.2170 165.4942 0003120  47.2220 312.9035 15.08835696 35511,6917.894,95.438,541.9169999999998,537.6,0.0
52336.0,STARLINK-3823,PAYLOAD,2022-12-02 18:46:52,15.08838815,0.0003113,53.2167,164.305,47.4508,312.6746,0.00013741,1.899e-05,0.0,0 STARLINK-3823,1 52336U 22045F   22336.78255263  .00001899  00000-0  13741-3 0  9992,2 52336  53.2167 164.3050 0003113  47.4508 312.6746 15.08838815 35554,6917.884,95.438,541.903,537.595,0.0
52336.0,STARLINK-3823,PAYLOAD,2022-12-03 05:54:34,15.08843088,0.0003155,53.2166,162.2233,48.2869,311.8393,0.00014148,1.964e-05,0.0,0 STARLINK-3823,1 52336U 22045F   22337.24623055  .00001964  00000-0  14148-3 0  9997,2 52336  53.2166 162.2233 0003155  48.2869 311.8393 15.08843088 35623,6917.871,95.437,541.919,537.553,0.0
52336.0,STARLINK-3823,PAYLOAD,2022-12-03 18:37:39,15.08846731,0.0003166,53.2163,159.8442,49.3718,310.7549,0.00013729,1.897e-05,0.0,0 STARLINK-3823,1 52336U 22045F   22337.77614720  .00001897  00000-0  13729-3 0  9993,2 52336  53.2163 159.8442 0003166  49.3718 310.7549 15.08846731 35709,6917.86,95.437,541.915,537.535,0.0
52336.0,STARLINK-3823,PAYLOAD,2022-12-04 12:06:53,15.0884611,0.0003289,53.2158,156.5739,51.7094,308.4194,6.948100000000001e-05,8.17e-06,0.0,0 STARLINK-3823,1 52336U 22045F   22338.50478669  .00000817  00000-0  69481-4 0  9993,2 52336  53.2158 156.5739 0003289  51.7094 308.4194 15.08846110 35819,6917.861999999999,95.437,542.002,537.451,0.0
52336.0,STARLINK-3823,PAYLOAD,2022-12-04 18:28:26,15.08839621,0.0003278,53.2163,155.3842,51.8847,308.244,1.1745e-05,-1.02e-06,0.0,0 STARLINK-3823,1 52336U 22045F   22338.76975149 -.00000102  00000-0  11745-4 0  9994,2 52336  53.2163 155.3842 0003278  51.8847 308.2440 15.08839621 35857,6917.882,95.438,542.014,537.479,0.0
52336.0,STARLINK-3823,PAYLOAD,2022-12-04 23:14:35,15.08841224,0.0003204,53.2167,154.4915,52.4802,307.6481,1.0405e-05,-1.23e-06,0.0,0 STARLINK-3823,1 52336U 22045F   22338.96847046 -.00000123  00000-0  10405-4 0  9995,2 52336  53.2167 154.4915 0003204  52.4802 307.6481 15.08841224 35882,6917.877,95.437,541.9580000000002,537.525,0.0
52336.0,STARLINK-3823,PAYLOAD,2022-12-05 18:19:13,15.08833469,0.0003102,53.2167,150.9236,52.793,307.3345,0.00019487,2.814e-05,0.0,0 STARLINK-3823,1 52336U 22045F   22339.76334681  .00002814  00000-0  19487-3 0  9996,2 52336  53.2167 150.9236 0003102  52.7930 307.3345 15.08833469 36004,6917.9,95.438,541.911,537.619,0.0
52336.0,STARLINK-3823,PAYLOAD,2022-12-05 21:29:59,15.08824932,0.0003146,53.2168,150.3291,54.5741,305.5544,0.00033635,5.067e-05,0.0,0 STARLINK-3823,1 52336U 22045F   22339.89582841  .00005067  00000-0  33635-3 0  9997,2 52336  53.2168 150.3291 0003146  54.5741 305.5544 15.08824932 36026,6917.926,95.439,541.9680000000002,537.615,0.0
52336.0,STARLINK-3823,PAYLOAD,2022-12-06 11:48:26,15.08866268,0.0003342,53.2169,147.65200000000004,51.3284,308.8007,-0.00022372,-3.851e-05,0.0,0 STARLINK-3823,1 52336U 22045F   22340.49197248 -.00003851  00000-0 -22372-3 0  9995,2 52336  53.2169 147.6520 0003342  51.3284 308.8007 15.08866268 36114,6917.8,95.436,541.977,537.3530000000002,0.0
52336.0,STARLINK-3823,PAYLOAD,2022-12-06 21:20:46,15.08832332,0.0003204,53.2173,145.8678,52.4123,307.716,1.5e-05,-5e-07,0.0,0 STARLINK-3823,1 52336U 22045F   22340.88943158 -.00000050  00000-0  15000-4 0  9995,2 52336  53.2173 145.8678 0003204  52.4123 307.7160 15.08832332 36173,6917.904,95.438,541.985,537.552,0.0
52336.0,STARLINK-3823,PAYLOAD,2022-12-07 18:00:49,15.08843711,0.0002695,53.2179,142.0044,33.9926,326.1238,-0.0010860999999999,-0.00017535,0.0,0 STARLINK-3823,1 52336U 22045F   22341.75057754 -.00017535  00000-0 -10861-2 0  9995,2 52336  53.2179 142.0044 0002695  33.9926 326.1238 15.08843711 36302,6917.869000000002,95.437,541.5980000000002,537.87,0.0
52336.0,STARLINK-3823,PAYLOAD,2022-12-08 11:29:59,15.08878135,0.0003505,53.2181,138.7337,57.4984,302.6347,0.00023784,3.503e-05,0.0,0 STARLINK-3823,1 52336U 22045F   22342.47915743  .00003503  00000-0  23784-3 0  9993,2 52336  53.2181 138.7337 0003505  57.4984 302.6347 15.08878135 36418,6917.764,95.435,542.054,537.2040000000002,0.0
52336.0,STARLINK-3823,PAYLOAD,2022-12-08 16:16:09,15.0886087,0.0003018,53.218,137.8416,65.3728,294.7578,0.00010692,1.414e-05,0.0,0 STARLINK-3823,1 52336U 22045F   22342.67789111  .00001414  00000-0  10692-3 0  9996,2 52336  53.2180 137.8416 0003018  65.3728 294.7578 15.08860870 36445,6917.816999999999,95.436,541.769,537.594,0.0
52336.0,STARLINK-3823,PAYLOAD,2022-12-09 03:23:47,15.08899317,0.0001343,53.2176,135.7589,352.3087,7.7884,0.00072261,0.0001125,0.0,0 STARLINK-3823,1 52336U 22045F   22343.14152348  .00011250  00000-0  72261-3 0  9994,2 52336  53.2176 135.7589 0001343 352.3087   7.7884 15.08899317 36512,6917.699000000001,95.434,540.493,538.635,0.0
52336.0,STARLINK-3823,PAYLOAD,2022-12-09 19:17:43,15.08840654,0.0001425,53.2174,132.7854,55.8066,304.3061,0.000175,2.498e-05,0.0,0 STARLINK-3823,1 52336U 22045F   22343.80397759  .00002498  00000-0  17500-3 0  9993,2 52336  53.2174 132.7854 0001425  55.8066 304.3061 15.08840654 36619,6917.878000000002,95.438,540.729,538.758,0.0
52336.0,STARLINK-3823,PAYLOAD,2022-12-09 22:28:32,15.08819117,0.0001223,53.2173,132.1908,59.0653,301.0459,-0.00043638,-7.222e-05,0.0,0 STARLINK-3823,1 52336U 22045F   22343.93648374 -.00007222  00000-0 -43638-3 0  9992,2 52336  53.2173 132.1908 0001223  59.0653 301.0459 15.08819117 36633,6917.944,95.439,540.655,538.9630000000002,0.0
52336.0,STARLINK-3823,PAYLOAD,2022-12-10 14:22:21,15.08844271,0.0003116,53.217,129.2155,56.6811,303.4479,9.4304e-05,1.213e-05,0.0,0 STARLINK-3823,1 52336U 22045F   22344.59886344  .00001213  00000-0  94304-4 0  9995,2 52336  53.2170 129.2155 0003116  56.6811 303.4479 15.08844271 36731,6917.8669999999975,95.437,541.888,537.577,0.0
52336.0,STARLINK-3823,PAYLOAD,2022-12-10 17:33:07,15.088459,0.0003082,53.2171,128.6208,56.3717,303.7569,0.00010369,1.362e-05,0.0,0 STARLINK-3823,1 52336U 22045F   22344.73134194  .00001362  00000-0  10369-3 0  9993,2 52336  53.2171 128.6208 0003082  56.3717 303.7569 15.08845900 36753,6917.861999999999,95.437,541.859,537.595,0.0
52336.0,STARLINK-3823,PAYLOAD,2022-12-10 22:19:17,15.08843067,0.0003294,53.217,127.7299,52.9273,307.202,8.740799999999999e-05,1.103e-05,0.0,0 STARLINK-3823,1 52336U 22045F   22344.93006475  .00001103  00000-0  87408-4 0  9997,2 52336  53.2170 127.7299 0003294  52.9273 307.2020 15.08843067 36782,6917.871,95.437,542.015,537.457,0.0
52336.0,STARLINK-3823,PAYLOAD,2022-12-11 18:59:18,15.08840116,0.0002742,53.2174,123.8646,52.5483,307.5758,8.1528e-05,1.009e-05,0.0,0 STARLINK-3823,1 52336U 22045F   22345.79118494  .00001009  00000-0  81528-4 0  9999,2 52336  53.2174 123.8646 0002742  52.5483 307.5758 15.08840116 36913,6917.88,95.438,541.6419999999998,537.8480000000002,0.0
52336.0,STARLINK-3823,PAYLOAD,2022-12-12 12:28:32,15.08846449,0.0003146,53.218,120.5936,55.4893,304.6396,3.4585e-05,2.62e-06,0.0,0 STARLINK-3823,1 52336U 22045F   22346.51982341  .00000262  00000-0  34585-4 0  9991,2 52336  53.2180 120.5936 0003146  55.4893 304.6396 15.08846449 37026,6917.861,95.437,541.9019999999998,537.549,0.0
52336.0,STARLINK-3823,PAYLOAD,2022-12-12 20:25:28,15.08838453,0.0002886,53.216,119.1062,53.5728,306.553,-4.7896e-06,-3.65e-06,0.0,0 STARLINK-3823,1 52336U 22045F   22346.85102849 -.00000365  00000-0 -47896-5 0  9991,2 52336  53.2160 119.1062 0002886  53.5728 306.5530 15.08838453 37076,6917.885,95.438,541.747,537.754,0.0
52336.0,STARLINK-3823,PAYLOAD,2022-12-13 09:08:33,15.08839002,0.0002984,53.2159,116.7275,53.6128,306.5139,3.6925e-05,2.99e-06,0.0,0 STARLINK-3823,1 52336U 22045F   22347.38094805  .00000299  00000-0  36925-4 0  9996,2 52336  53.2159 116.7275 0002984  53.6128 306.5139 15.08839002 37152,6917.8830000000025,95.438,541.813,537.684,0.0
52336.0,STARLINK-3823,PAYLOAD,2022-12-13 15:30:06,15.0883526,0.0002909,53.2173,115.5388,55.0091,305.1174,-1.6781e-05,-5.56e-06,0.0,0 STARLINK-3823,1 52336U 22045F   22347.64591245 -.00000556  00000-0 -16781-4 0  9991,2 52336  53.2173 115.5388 0002909  55.0091 305.1174 15.08835260 37192,6917.895,95.438,541.7719999999998,537.747,0.0
52336.0,STARLINK-3823,PAYLOAD,2022-12-14 07:23:58,15.08835185,0.0002913,53.2176,112.5643,53.2336,306.8923,3.0688e-05,2e-06,0.0,0 STARLINK-3823,1 52336U 22045F   22348.30831287  .00000200  00000-0  30688-4 0  9994,2 52336  53.2176 112.5643 0002913  53.2336 306.8923 15.08835185 37290,6917.895,95.438,541.775,537.745,0.0
52336.0,STARLINK-3823,PAYLOAD,2022-12-14 15:20:53,15.08842819,0.0002788999999999,53.2182,111.0775,49.2736,310.8498,-5.9812e-05,-1.241e-05,0.0,0 STARLINK-3823,1 52336U 22045F   22348.63951167 -.00001241  00000-0 -59812-4 0  9998,2 52336  53.2182 111.0775 0002789  49.2736 310.8498 15.08842819 37347,6917.871999999999,95.437,541.6659999999998,537.807,0.0
